<?xml version="1.0" encoding="UTF-8"?>
<ndm xmlns:xsi="http://www.w3.org/2001/XMLSchema-instance" xsi:noNamespaceSchemaLocation="https://sanaregistry.org/r/ndmxml_unqualified/ndmxml-2.0.0-master-2.0.xsd">
<omm id="CCSDS_OMM_VERS" version="2.0">
<header><CREATION_DATE/><ORIGINATOR/></header><body><segment><metadata><OBJECT_NAME>IRIDIUM 921</OBJECT_NAME><OBJECT_ID>1997-034E</OBJECT_ID><CENTER_NAME>EARTH</CENTER_NAME><REF_FRAME>TEME</REF_FRAME><TIME_SYSTEM>UTC</TIME_SYSTEM><MEAN_ELEMENT_THEORY>SGP4</MEAN_ELEMENT_THEORY></metadata><data><meanElements><EPOCH>2024-05-22T21:22:00.150528</EPOCH><MEAN_MOTION>15.37815682</MEAN_MOTION><ECCENTRICITY>.0003319</ECCENTRICITY><INCLINATION>86.3788</INCLINATION><RA_OF_ASC_NODE>300.6289</RA_OF_ASC_NODE><ARG_OF_PERICENTER>8.7716</ARG_OF_PERICENTER><MEAN_ANOMALY>351.3594</MEAN_ANOMALY></meanElements><tleParameters><EPHEMERIS_TYPE>0</EPHEMERIS_TYPE><CLASSIFICATION_TYPE>U</CLASSIFICATION_TYPE><NORAD_CAT_ID>24873</NORAD_CAT_ID><ELEMENT_SET_NO>999</ELEMENT_SET_NO><REV_AT_EPOCH>47157</REV_AT_EPOCH><BSTAR>.95747E-3</BSTAR><MEAN_MOTION_DOT>.35702E-3</MEAN_MOTION_DOT><MEAN_MOTION_DDOT>0</MEAN_MOTION_DDOT></tleParameters></data></segment></body></omm>
<omm id="CCSDS_OMM_VERS" version="2.0">
<header><CREATION_DATE/><ORIGINATOR/></header><body><segment><metadata><OBJECT_NAME>IRIDIUM 26</OBJECT_NAME><OBJECT_ID>1997-043A</OBJECT_ID><CENTER_NAME>EARTH</CENTER_NAME><REF_FRAME>TEME</REF_FRAME><TIME_SYSTEM>UTC</TIME_SYSTEM><MEAN_ELEMENT_THEORY>SGP4</MEAN_ELEMENT_THEORY></metadata><data><meanElements><EPOCH>2024-05-22T21:38:30.544224</EPOCH><MEAN_MOTION>14.36367230</MEAN_MOTION><ECCENTRICITY>.0001954</ECCENTRICITY><INCLINATION>86.3937</INCLINATION><RA_OF_ASC_NODE>274.3649</RA_OF_ASC_NODE><ARG_OF_PERICENTER>88.7043</ARG_OF_PERICENTER><MEAN_ANOMALY>271.4377</MEAN_ANOMALY></meanElements><tleParameters><EPHEMERIS_TYPE>0</EPHEMERIS_TYPE><CLASSIFICATION_TYPE>U</CLASSIFICATION_TYPE><NORAD_CAT_ID>24903</NORAD_CAT_ID><ELEMENT_SET_NO>999</ELEMENT_SET_NO><REV_AT_EPOCH>40070</REV_AT_EPOCH><BSTAR>.34289E-3</BSTAR><MEAN_MOTION_DOT>.1022E-4</MEAN_MOTION_DOT><MEAN_MOTION_DDOT>0</MEAN_MOTION_DDOT></tleParameters></data></segment></body></omm>
<omm id="CCSDS_OMM_VERS" version="2.0">
<header><CREATION_DATE/><ORIGINATOR/></header><body><segment><metadata><OBJECT_NAME>IRIDIUM 22</OBJECT_NAME><OBJECT_ID>1997-043E</OBJECT_ID><CENTER_NAME>EARTH</CENTER_NAME><REF_FRAME>TEME</REF_FRAME><TIME_SYSTEM>UTC</TIME_SYSTEM><MEAN_ELEMENT_THEORY>SGP4</MEAN_ELEMENT_THEORY></metadata><data><meanElements><EPOCH>2024-05-22T20:50:06.375840</EPOCH><MEAN_MOTION>14.35256830</MEAN_MOTION><ECCENTRICITY>.000215</ECCENTRICITY><INCLINATION>86.3939</INCLINATION><RA_OF_ASC_NODE>277.5979</RA_OF_ASC_NODE><ARG_OF_PERICENTER>92.7393</ARG_OF_PERICENTER><MEAN_ANOMALY>267.4049</MEAN_ANOMALY></meanElements><tleParameters><EPHEMERIS_TYPE>0</EPHEMERIS_TYPE><CLASSIFICATION_TYPE>U</CLASSIFICATION_TYPE><NORAD_CAT_ID>24907</NORAD_CAT_ID><ELEMENT_SET_NO>999</ELEMENT_SET_NO><REV_AT_EPOCH>40077</REV_AT_EPOCH><BSTAR>.34299E-3</BSTAR><MEAN_MOTION_DOT>.1001E-4</MEAN_MOTION_DOT><MEAN_MOTION_DDOT>0</MEAN_MOTION_DDOT></tleParameters></data></segment></body></omm>
<omm id="CCSDS_OMM_VERS" version="2.0">
<header><CREATION_DATE/><ORIGINATOR/></header><body><segment><metadata><OBJECT_NAME>DUMMY MASS 1</OBJECT_NAME><OBJECT_ID>1997-048A</OBJECT_ID><CENTER_NAME>EARTH</CENTER_NAME><REF_FRAME>TEME</REF_FRAME><TIME_SYSTEM>UTC</TIME_SYSTEM><MEAN_ELEMENT_THEORY>SGP4</MEAN_ELEMENT_THEORY></metadata><data><meanElements><EPOCH>2024-05-22T21:03:26.147808</EPOCH><MEAN_MOTION>14.86208844</MEAN_MOTION><ECCENTRICITY>.0009186</ECCENTRICITY><INCLINATION>86.3317</INCLINATION><RA_OF_ASC_NODE>315.6909</RA_OF_ASC_NODE><ARG_OF_PERICENTER>89.8653</ARG_OF_PERICENTER><MEAN_ANOMALY>270.3624</MEAN_ANOMALY></meanElements><tleParameters><EPHEMERIS_TYPE>0</EPHEMERIS_TYPE><CLASSIFICATION_TYPE>U</CLASSIFICATION_TYPE><NORAD_CAT_ID>24925</NORAD_CAT_ID><ELEMENT_SET_NO>999</ELEMENT_SET_NO><REV_AT_EPOCH>44714</REV_AT_EPOCH><BSTAR>.11027E-3</BSTAR><MEAN_MOTION_DOT>.997E-5</MEAN_MOTION_DOT><MEAN_MOTION_DDOT>0</MEAN_MOTION_DDOT></tleParameters></data></segment></body></omm>
<omm id="CCSDS_OMM_VERS" version="2.0">
<header><CREATION_DATE/><ORIGINATOR/></header><body><segment><metadata><OBJECT_NAME>IRIDIUM 29</OBJECT_NAME><OBJECT_ID>1997-051A</OBJECT_ID><CENTER_NAME>EARTH</CENTER_NAME><REF_FRAME>TEME</REF_FRAME><TIME_SYSTEM>UTC</TIME_SYSTEM><MEAN_ELEMENT_THEORY>SGP4</MEAN_ELEMENT_THEORY></metadata><data><meanElements><EPOCH>2024-05-22T21:05:36.280032</EPOCH><MEAN_MOTION>14.35704220</MEAN_MOTION><ECCENTRICITY>.0002369</ECCENTRICITY><INCLINATION>86.3924</INCLINATION><RA_OF_ASC_NODE>307.5208</RA_OF_ASC_NODE><ARG_OF_PERICENTER>90.6274</ARG_OF_PERICENTER><MEAN_ANOMALY>269.5194</MEAN_ANOMALY></meanElements><tleParameters><EPHEMERIS_TYPE>0</EPHEMERIS_TYPE><CLASSIFICATION_TYPE>U</CLASSIFICATION_TYPE><NORAD_CAT_ID>24944</NORAD_CAT_ID><ELEMENT_SET_NO>999</ELEMENT_SET_NO><REV_AT_EPOCH>39725</REV_AT_EPOCH><BSTAR>.32247E-3</BSTAR><MEAN_MOTION_DOT>.95E-5</MEAN_MOTION_DOT><MEAN_MOTION_DDOT>0</MEAN_MOTION_DDOT></tleParameters></data></segment></body></omm>
<omm id="CCSDS_OMM_VERS" version="2.0">
<header><CREATION_DATE/><ORIGINATOR/></header><body><segment><metadata><OBJECT_NAME>IRIDIUM 33</OBJECT_NAME><OBJECT_ID>1997-051C</OBJECT_ID><CENTER_NAME>EARTH</CENTER_NAME><REF_FRAME>TEME</REF_FRAME><TIME_SYSTEM>UTC</TIME_SYSTEM><MEAN_ELEMENT_THEORY>SGP4</MEAN_ELEMENT_THEORY></metadata><data><meanElements><EPOCH>2024-05-22T21:09:56.204928</EPOCH><MEAN_MOTION>14.34362560</MEAN_MOTION><ECCENTRICITY>.0005772</ECCENTRICITY><INCLINATION>86.3840</INCLINATION><RA_OF_ASC_NODE>306.7724</RA_OF_ASC_NODE><ARG_OF_PERICENTER>273.3018</ARG_OF_PERICENTER><MEAN_ANOMALY>86.7518</MEAN_ANOMALY></meanElements><tleParameters><EPHEMERIS_TYPE>0</EPHEMERIS_TYPE><CLASSIFICATION_TYPE>U</CLASSIFICATION_TYPE><NORAD_CAT_ID>24946</NORAD_CAT_ID><ELEMENT_SET_NO>999</ELEMENT_SET_NO><REV_AT_EPOCH>39678</REV_AT_EPOCH><BSTAR>.24179E-3</BSTAR><MEAN_MOTION_DOT>.699E-5</MEAN_MOTION_DOT><MEAN_MOTION_DDOT>0</MEAN_MOTION_DDOT></tleParameters></data></segment></body></omm>
<omm id="CCSDS_OMM_VERS" version="2.0">
<header><CREATION_DATE/><ORIGINATOR/></header><body><segment><metadata><OBJECT_NAME>IRIDIUM 28</OBJECT_NAME><OBJECT_ID>1997-051E</OBJECT_ID><CENTER_NAME>EARTH</CENTER_NAME><REF_FRAME>TEME</REF_FRAME><TIME_SYSTEM>UTC</TIME_SYSTEM><MEAN_ELEMENT_THEORY>SGP4</MEAN_ELEMENT_THEORY></metadata><data><meanElements><EPOCH>2024-05-22T21:35:23.059680</EPOCH><MEAN_MOTION>14.36656726</MEAN_MOTION><ECCENTRICITY>.0001719</ECCENTRICITY><INCLINATION>86.3928</INCLINATION><RA_OF_ASC_NODE>305.2496</RA_OF_ASC_NODE><ARG_OF_PERICENTER>86.4282</ARG_OF_PERICENTER><MEAN_ANOMALY>273.7112</MEAN_ANOMALY></meanElements><tleParameters><EPHEMERIS_TYPE>0</EPHEMERIS_TYPE><CLASSIFICATION_TYPE>U</CLASSIFICATION_TYPE><NORAD_CAT_ID>24948</NORAD_CAT_ID><ELEMENT_SET_NO>999</ELEMENT_SET_NO><REV_AT_EPOCH>39779</REV_AT_EPOCH><BSTAR>.33082E-3</BSTAR><MEAN_MOTION_DOT>.993E-5</MEAN_MOTION_DOT><MEAN_MOTION_DDOT>0</MEAN_MOTION_DDOT></tleParameters></data></segment></body></omm>

</ndm>
