IRIDIUM 921             
1 24873U 97034E   24143.89027952  .00035702  00000+0  95747-3 0  9994
2 24873  86.3788 300.6289 0003319   8.7716 351.3594 15.37815682471298
IRIDIUM 26              
1 24903U 97043A   24143.90174241  .00001022  00000+0  34289-3 0  9996
2 24903  86.3937 274.3649 0001954  88.7043 271.4377 14.36367230400707
IRIDIUM 22              
1 24907U 97043E   24143.86812935  .00001001  00000+0  34299-3 0  9992
2 24907  86.3939 277.5979 0002150  92.7393 267.4049 14.35256830400776
DUMMY MASS 1            
1 24925U 97048A   24143.87738597  .00000997  00000+0  11027-3 0  9996
2 24925  86.3317 315.6909 0009186  89.8653 270.3624 14.86208844447147
IRIDIUM 29              
1 24944U 97051A   24143.87889213  .00000950  00000+0  32247-3 0  9999
2 24944  86.3924 307.5208 0002369  90.6274 269.5194 14.35704220397250
IRIDIUM 33              
1 24946U 97051C   24143.88190052  .00000699  00000+0  24179-3 0  9993
2 24946  86.3840 306.7724 0005772 273.3018  86.7518 14.34362560396782
IRIDIUM 28              
1 24948U 97051E   24143.89957245  .00000993  00000+0  33082-3 0  9991
2 24948  86.3928 305.2496 0001719  86.4282 273.7112 14.36656726397796
